{
	"creator": "Satellites plugin version 0.6.4",
	"hintColor": [0.4, 0.4, 0.4],
	"satellites": 
	{
		"AAU CUBESAT": 
		{
			"groups": [],
			"lastUpdated": 2010-11-18T21:00:01,
			"orbitVisible": false,
			"tle1": "1 27846U 03031G   10322.04074654  .00000056  00000-0  45693-4 0  8768",
			"tle2": "2 27846  98.7002 329.6105 0010121  65.8238 294.4023 14.21065071383036",
			"visible": false
		},
		"AJISAI (EGS)": 
		{
			"groups": ["visual"],
			"hintColor": [0.5, 0.5, 0.5],
			"lastUpdated": 2010-11-18T21:00:01,
			"orbitVisible": false,
			"tle1": "1 16908U 86061A   10321.84797408 -.00000083  00000-0  10000-3 0  3696",
			"tle2": "2 16908  50.0111   4.2832 0011508  98.3876 261.8263 12.44464899772183",
			"visible": true
		},
		"AKARI (ASTRO-F)": 
		{
			"groups": ["visual"],
			"hintColor": [0.5, 0.5, 0.5],
			"lastUpdated": 2010-11-18T21:00:01,
			"orbitVisible": false,
			"tle1": "1 28939U 06005A   10321.96319841  .00000176  00000-0  48808-4 0  4294",
			"tle2": "2 28939  98.2557 325.9046 0008777  17.3359 342.8150 14.57673147251663",
			"visible": true
		},
		"ALOS (DAICHI)": 
		{
			"groups": ["visual"],
			"hintColor": [0.5, 0.5, 0.5],
			"lastUpdated": 2010-11-18T21:00:01,
			"orbitVisible": false,
			"tle1": "1 28931U 06002A   10322.16815010  .00000277  00000-0  67824-4 0  3868",
			"tle2": "2 28931  98.1416  34.1690 0001252  97.3454 262.7904 14.59583962256600",
			"visible": true
		},
		"AQUA": 
		{
			"groups": ["visual"],
			"hintColor": [0.5, 0.5, 0.5],
			"lastUpdated": 2010-11-18T21:00:01,
			"orbitVisible": false,
			"tle1": "1 27424U 02022A   10321.58493059  .00000225  00000-0  60069-4 0  7964",
			"tle2": "2 27424  98.2037 260.4353 0001229  52.7381 307.3913 14.57125042454250",
			"visible": true
		},
		"ARIANE 40 R/B": 
		{
			"groups": ["visual"],
			"hintColor": [0.5, 0.5, 0.5],
			"lastUpdated": 2010-11-18T21:00:01,
			"orbitVisible": false,
			"tle1": "1 22830U 93061H   10321.45215012  .00000072  00000-0  44461-4 0  1704",
			"tle2": "2 22830  98.6409 270.7390 0011452 116.7305 243.5051 14.30529655894468",
			"visible": true
		},
		"ARIANE 40+ R/B": 
		{
			"groups": ["visual"],
			"hintColor": [0.5, 0.5, 0.5],
			"lastUpdated": 2010-11-18T21:00:01,
			"orbitVisible": false,
			"tle1": "1 23561U 95021B   10321.46177864  .00000102  00000-0  49695-4 0  7554",
			"tle2": "2 23561  98.5048 269.0826 0006497 184.1320 175.9813 14.36461556815998",
			"visible": true
		},
		"ARIANE 5 R/B": 
		{
			"groups": ["visual"],
			"hintColor": [0.5, 0.5, 0.5],
			"lastUpdated": 2010-11-18T21:00:01,
			"orbitVisible": false,
			"tle1": "1 28499U 04049H   10322.11065144  .00000292  00000-0  46178-4 0  8812",
			"tle2": "2 28499  98.3085 319.1702 0097421  13.9113 346.4757 14.77244642318886",
			"visible": true
		},
		"ARSENE (AO-24)": 
		{
			"groups": ["amateur", "non-operational"],
			"hintColor": [0.3, 0.2, 0],
			"lastUpdated": 2010-11-17T04:03:12,
			"orbitVisible": false,
			"tle1": "1 22654U 93031B   10320.19701300 -.00000103  00000-0  10000-3 0  4211",
			"tle2": "2 22654   4.6262 326.9563 2845044 191.7915 159.5812  1.42205628 86471",
			"visible": false
		},
		"ASTEX 1": 
		{
			"groups": ["visual"],
			"hintColor": [0.5, 0.5, 0.5],
			"lastUpdated": 2010-11-18T21:00:01,
			"orbitVisible": false,
			"tle1": "1 05560U 71089A   10321.54426501  .00000148  00000-0  41405-4 0  2573",
			"tle2": "2 05560  92.7015 150.2309 0016454 165.2817 194.8866 14.46295656 53527",
			"visible": true
		},
		"ATLAS 5 CENTAUR R/B": 
		{
			"groups": ["visual"],
			"hintColor": [0.5, 0.5, 0.5],
			"orbitVisible": false,
			"tle1": "1 30778U 07006G   10320.74002080  .00002906  00000-0  14529-3 0  9783",
			"tle2": "2 30778  35.7026  69.2711 0029311  89.4753 270.9331 15.16947004204691",
			"visible": true
		},
		"ATLAS CENTAUR 2": 
		{
			"groups": ["visual"],
			"hintColor": [0.5, 0.5, 0.5],
			"lastUpdated": 2010-11-18T21:00:01,
			"orbitVisible": false,
			"tle1": "1 00694U 63047A   10321.27947336  .00000544  00000-0  60756-4 0  4296",
			"tle2": "2 00694  30.3567   5.2803 0615751 158.8195 203.9079 13.95335838345858",
			"visible": true
		},
		"ATLAS CENTAUR R/B": 
		{
			"groups": ["visual"],
			"hintColor": [0.5, 0.5, 0.5],
			"lastUpdated": 2010-11-18T21:00:01,
			"orbitVisible": false,
			"tle1": "1 06155U 72065B   10321.25251515  .00000254  00000-0  46802-4 0  3056",
			"tle2": "2 06155  35.0058 355.8932 0039922 207.7360 152.1214 14.68113061 38081",
			"visible": true
		},
		"CANX-1": 
		{
			"groups": [],
			"lastUpdated": 2010-11-18T21:00:01,
			"orbitVisible": false,
			"tle1": "1 27847U 03031H   10321.56394170  .00000051  00000-0  43577-4 0  8958",
			"tle2": "2 27847  98.6994 329.1245 0010196  68.0650 292.1617 14.21042473382912",
			"visible": false
		},
		"COSMOS 1220": 
		{
			"groups": ["visual"],
			"hintColor": [0.5, 0.5, 0.5],
			"lastUpdated": 2010-11-18T21:00:01,
			"orbitVisible": false,
			"tle1": "1 12054U 80089A   10321.73525273  .00005992  00000-0  22811-3 0  4209",
			"tle2": "2 12054  64.9751  58.2423 0067000 295.1840  64.2337 15.25633018547254",
			"visible": true
		},
		"COSMOS 1400": 
		{
			"groups": ["visual"],
			"hintColor": [0.5, 0.5, 0.5],
			"lastUpdated": 2010-11-18T21:00:01,
			"orbitVisible": false,
			"tle1": "1 13402U 82079A   10321.22626249  .00003123  00000-0  10647-3 0  2113",
			"tle2": "2 13402  81.1318 227.0626 0008675 141.0806 219.1049 15.30019469548433",
			"visible": true
		},
		"COSMOS 1484": 
		{
			"groups": ["visual"],
			"hintColor": [0.5, 0.5, 0.5],
			"lastUpdated": 2010-11-18T21:00:01,
			"orbitVisible": false,
			"tle1": "1 14207U 83075A   10321.41157639  .00009843  00000-0  18001-3 0  7423",
			"tle2": "2 14207  97.5992 107.4819 0014317 140.1586 220.0697 15.49476264941477",
			"visible": true
		},
		"COSMOS 1500": 
		{
			"groups": ["visual"],
			"hintColor": [0.5, 0.5, 0.5],
			"lastUpdated": 2010-11-18T21:00:01,
			"orbitVisible": false,
			"tle1": "1 14372U 83099A   10321.12845769  .00000377  00000-0  24779-4 0  5553",
			"tle2": "2 14372  82.5303 172.8327 0016139  60.9381 299.3487 15.04545689474809",
			"visible": true
		},
		"COSMOS 1536": 
		{
			"groups": ["visual"],
			"hintColor": [0.5, 0.5, 0.5],
			"lastUpdated": 2010-11-18T21:00:01,
			"orbitVisible": false,
			"tle1": "1 14699U 84013A   10321.89469440  .00000958  00000-0  78122-4 0  9510",
			"tle2": "2 14699  82.5239 124.1238 0012752 297.0822  62.9095 14.98325185452400",
			"visible": true
		},
		"COSMOS 1544": 
		{
			"groups": ["visual"],
			"hintColor": [0.5, 0.5, 0.5],
			"lastUpdated": 2010-11-18T21:00:01,
			"orbitVisible": false,
			"tle1": "1 14819U 84027A   10321.63993351  .00000913  00000-0  56594-4 0  9367",
			"tle2": "2 14819  82.5288 246.9530 0019294  96.7873 263.5548 15.08365747451517",
			"visible": true
		},
		"COSMOS 1812": 
		{
			"groups": ["visual"],
			"hintColor": [0.5, 0.5, 0.5],
			"lastUpdated": 2010-11-18T21:00:01,
			"orbitVisible": false,
			"tle1": "1 17295U 87003A   10322.09026341  .00000494  00000-0  34704-4 0  3392",
			"tle2": "2 17295  82.5212 326.4211 0014808  74.0680 286.2210 15.02820218296659",
			"visible": true
		},
		"COSMOS 1833": 
		{
			"groups": ["visual"],
			"hintColor": [0.5, 0.5, 0.5],
			"lastUpdated": 2010-11-18T21:00:01,
			"orbitVisible": false,
			"tle1": "1 17589U 87027A   10322.06976277 -.00000288  00000-0 -12932-3 0  7422",
			"tle2": "2 17589  70.9119 194.6216 0008253  42.7831 317.3929 14.12744328220892",
			"visible": true
		},
		"COSMOS 1844": 
		{
			"groups": ["visual"],
			"hintColor": [0.5, 0.5, 0.5],
			"lastUpdated": 2010-11-18T21:00:01,
			"orbitVisible": false,
			"tle1": "1 17973U 87041A   10322.21681652 -.00000220  00000-0 -90484-4 0  7652",
			"tle2": "2 17973  70.8986 296.7291 0029735 133.9161 226.4416 14.13749421213493",
			"visible": true
		},
		"COSMOS 1867": 
		{
			"groups": ["visual"],
			"hintColor": [0.5, 0.5, 0.5],
			"lastUpdated": 2010-11-18T21:00:01,
			"orbitVisible": false,
			"tle1": "1 18187U 87060A   10320.99965099 -.00000083  00000-0  65206-5 0   298",
			"tle2": "2 18187  65.0093 116.1366 0020310 268.1166  91.7593 14.30872188219996",
			"visible": true
		},
		"COSMOS 1933": 
		{
			"groups": ["visual"],
			"hintColor": [0.5, 0.5, 0.5],
			"lastUpdated": 2010-11-18T21:00:01,
			"orbitVisible": false,
			"tle1": "1 18958U 88020A   10321.90724267  .00000627  00000-0  52146-4 0  1431",
			"tle2": "2 18958  82.5301 251.5206 0014526 134.0958 226.1467 14.96974428231223",
			"visible": true
		},
		"COSMOS 1953": 
		{
			"groups": ["visual"],
			"hintColor": [0.5, 0.5, 0.5],
			"lastUpdated": 2010-11-18T21:00:01,
			"orbitVisible": false,
			"tle1": "1 19210U 88050A   10322.06312001  .00000719  00000-0  60073-4 0  2580",
			"tle2": "2 19210  82.5194 188.2663 0018139 123.4982 236.8022 14.96919625217307",
			"visible": true
		},
		"COSMOS 1975": 
		{
			"groups": ["visual"],
			"hintColor": [0.5, 0.5, 0.5],
			"lastUpdated": 2010-11-18T21:00:01,
			"orbitVisible": false,
			"tle1": "1 19573U 88093A   10321.55765679  .00000483  00000-0  40995-4 0   289",
			"tle2": "2 19573  82.5203 135.0498 0018183 143.4031 216.8431 14.95617309199519",
			"visible": true
		},
		"COSMOS 2058": 
		{
			"groups": ["visual"],
			"hintColor": [0.5, 0.5, 0.5],
			"lastUpdated": 2010-11-18T21:00:01,
			"orbitVisible": false,
			"tle1": "1 20465U 90010A   10321.52771920  .00000101  00000-0  75034-5 0  9577",
			"tle2": "2 20465  82.4937  27.2601 0019589  72.6426 287.6917 14.91204430126354",
			"visible": true
		},
		"COSMOS 2084": 
		{
			"groups": ["visual"],
			"hintColor": [0.5, 0.5, 0.5],
			"lastUpdated": 2010-11-18T21:00:01,
			"orbitVisible": false,
			"tle1": "1 20663U 90055A   10322.04059121  .00000423  00000-0  59723-4 0  9940",
			"tle2": "2 20663  62.7946 291.9385 0146351  74.5451 287.1733 14.85601721102038",
			"visible": true
		}
	},
	"shortName": "satellite orbital data"
}
